0 THORAD AGENA D DEB
1 04749U 70025CX  13282.61701388  .00000751  00000-0  80510-3 0  2193
2 04749 099.4042 170.2054 0016236 061.0170 357.2464 13.76984791164418
0 THORAD AGENA D DEB
1 04749U 70025CX  13284.16208566  .00000858  00000-0  91325-3 0  2201
2 04749 099.4042 171.7330 0016287 057.3365 096.0209 13.76987271164625
0 THORAD AGENA D DEB
1 04749U 70025CX  13286.18893781  .00000822  00000-0  87658-3 0  2221
2 04749 099.4041 173.7371 0016365 052.5562 062.9084 13.76990802164902
0 THORAD AGENA D DEB
1 04749U 70025CX  13287.49851972  .00000882  00000-0  93792-3 0  2235
2 04749 099.4040 175.0320 0016415 049.4927 074.3552 13.76992909165083
0 THORAD AGENA D DEB
1 04749U 70025CX  13288.58640288  .00001009  00000-0  10660-2 0  2247
2 04749 099.4038 176.1077 0016435 046.9054 066.9187 13.76995394165235
0 THORAD AGENA D DEB
1 04749U 70025CX  13289.66415391  .00000999  00000-0  10555-2 0  2253
2 04749 099.4036 177.1734 0016480 044.3844 009.2245 13.76998464165385
0 THORAD AGENA D DEB
1 04749U 70025CX  13290.68263193  .00000977  00000-0  10333-2 0  2269
2 04749 099.4035 178.1805 0016500 042.0017 017.7271 13.77000399165525
0 THORAD AGENA D DEB
1 04749U 70025CX  13292.15495785  .00001003  00000-0  10598-2 0  2272
2 04749 099.4034 179.6363 0016534 038.5753 115.9122 13.77003238165726
0 THORAD AGENA D DEB
1 04749U 70025CX  13293.17409726  .00001064  00000-0  11213-2 0  2288
2 04749 099.4033 180.6440 0016549 036.1798 127.7265 13.77005265165868
0 THORAD AGENA D DEB
1 04749U 70025CX  13294.19212353  .00001032  00000-0  10894-2 0  2299
2 04749 099.4033 181.6506 0016563 033.7936 134.0219 13.77008002166004
0 THORAD AGENA D DEB
1 04749U 70025CX  13295.19868545  .00001053  00000-0  11099-2 0  2303
2 04749 099.4033 182.6458 0016569 031.4090 083.5234 13.77009985166144
